XRISM                   
1 57800U 23137A   24002.41326114  .00004735  00000+0  37383-3 0  9991
2 57800  31.0053 352.4067 0009822 355.1922   4.8618 14.99110399 17549
